{"type": "FeatureCollection", "features": [ {"type": "Feature", "properties": {"norad_id": 36710, "name": "FENGYUN 1C DEB", "group": "fengyun-1c-debris", "lat": 46.51482174816699, "lon": 33.48249391139133, "alt_km": 758.1852091855744, "timestamp": "2025-12-11T07:02:24.018789+00:00", "meta": {"OBJECT_NAME": "FENGYUN 1C DEB", "OBJECT_ID": "1999-025EAG", "EPOCH": "2025-12-09T10:05:53.606976", "MEAN_MOTION": 14.49787027, "ECCENTRICITY": 0.00678732, "INCLINATION": 98.3799, "RA_OF_ASC_NODE": 40.5617, "ARG_OF_PERICENTER": 191.5881, "MEAN_ANOMALY": 168.3755, "EPHEMERIS_TYPE": 0, "CLASSIFICATION_TYPE": "U", "NORAD_CAT_ID": 36710, "ELEMENT_SET_NO": 999, "REV_AT_EPOCH": 64905, "BSTAR": 0.0022522303, "MEAN_MOTION_DOT": 8.905e-05, "MEAN_MOTION_DDOT": 0}, "tle": {"line1": "1 36710U 99025EAG 25343.42075934  .00008905  00000+0  22522-2 0  9999", "line2": "2 36710  98.3799  40.5617 0067873 191.5881 168.3755 14.49787027649059"}}, "geometry": {"type": "Point", "coordinates": [33.48249391139133, 46.51482174816699]}}, {"type": "Feature", "properties": {"norad_id": 36711, "name": "FENGYUN 1C DEB", "group": "fengyun-1c-debris", "lat": -38.54887970232138, "lon": 12.953835215081872, "alt_km": 779.3375621702735, "timestamp": "2025-12-11T07:02:24.018798+00:00", "meta": {"OBJECT_NAME": "FENGYUN 1C DEB", "OBJECT_ID": "1999-025EAH", "EPOCH": "2025-11-29T18:49:32.545344", "MEAN_MOTION": 14.42080972, "ECCENTRICITY": 0.01000486, "INCLINATION": 100.8061, "RA_OF_ASC_NODE": 349.6584, "ARG_OF_PERICENTER": 244.1532, "MEAN_ANOMALY": 114.9305, "EPHEMERIS_TYPE": 0, "CLASSIFICATION_TYPE": "U", "NORAD_CAT_ID": 36711, "ELEMENT_SET_NO": 999, "REV_AT_EPOCH": 64124, "BSTAR": 0.0024295961, "MEAN_MOTION_DOT": 8.419e-05, "MEAN_MOTION_DDOT": 0}, "tle": {"line1": "1 36711U 99025EAH 25333.78440446  .00008419  00000+0  24296-2 0  9992", "line2": "2 36711 100.8061 349.6584 0100048 244.1532 114.9305 14.42080972641246"}}, "geometry": {"type": "Point", "coordinates": [12.953835215081872, -38.54887970232138]}}, {"type": "Feature", "properties": {"norad_id": 36716, "name": "FENGYUN 1C DEB", "group": "fengyun-1c-debris", "lat": -72.10700773654516, "lon": -65.40891053945639, "alt_km": 874.7572659899397, "timestamp": "2025-12-11T07:02:24.018808+00:00", "meta": {"OBJECT_NAME": "FENGYUN 1C DEB", "OBJECT_ID": "1999-025EAN", "EPOCH": "2025-12-10T12:22:25.648032", "MEAN_MOTION": 13.88411976, "ECCENTRICITY": 0.0148045, "INCLINATION": 99.2282, "RA_OF_ASC_NODE": 263.5873, "ARG_OF_PERICENTER": 234.8718, "MEAN_ANOMALY": 123.849, "EPHEMERIS_TYPE": 0, "CLASSIFICATION_TYPE": "U", "NORAD_CAT_ID": 36716, "ELEMENT_SET_NO": 999, "REV_AT_EPOCH": 62900, "BSTAR": 0.00035629, "MEAN_MOTION_DOT": 4.21e-06, "MEAN_MOTION_DDOT": 0}, "tle": {"line1": "1 36716U 99025EAN 25344.51557463  .00000421  00000+0  35629-3 0  9996", "line2": "2 36716  99.2282 263.5873 0148045 234.8718 123.8490 13.88411976629008"}}, "geometry": {"type": "Point", "coordinates": [-65.40891053945639, -72.10700773654516]}}, {"type": "Feature", "properties": {"norad_id": 36724, "name": "FENGYUN 1C DEB", "group": "fengyun-1c-debris", "lat": -38.489025535428354, "lon": 24.540107310575046, "alt_km": 849.817163042283, "timestamp": "2025-12-11T07:02:24.018818+00:00", "meta": {"OBJECT_NAME": "FENGYUN 1C DEB", "OBJECT_ID": "1999-025EAW", "EPOCH": "2025-12-10T01:02:55.934016", "MEAN_MOTION": 14.25243591, "ECCENTRICITY": 0.01036768, "INCLINATION": 99.4684, "RA_OF_ASC_NODE": 15.5672, "ARG_OF_PERICENTER": 205.2556, "MEAN_ANOMALY": 186.4891, "EPHEMERIS_TYPE": 0, "CLASSIFICATION_TYPE": "U", "NORAD_CAT_ID": 36724, "ELEMENT_SET_NO": 999, "REV_AT_EPOCH": 57434, "BSTAR": 0.0025842278, "MEAN_MOTION_DOT": 6.383e-05, "MEAN_MOTION_DDOT": 0}, "tle": {"line1": "1 36724U 99025EAW 25344.04370294  .00006383  00000+0  25842-2 0  9996", "line2": "2 36724  99.4684  15.5672 0103676 205.2556 186.4891 14.25243591574344"}}, "geometry": {"type": "Point", "coordinates": [24.540107310575046, -38.489025535428354]}}, {"type": "Feature", "properties": {"norad_id": 36729, "name": "FENGYUN 1C DEB", "group": "fengyun-1c-debris", "lat": 81.04634598114954, "lon": -136.28184366735863, "alt_km": 882.9834926780586, "timestamp": "2025-12-11T07:02:24.018829+00:00", "meta": {"OBJECT_NAME": "FENGYUN 1C DEB", "OBJECT_ID": "1999-025EBB", "EPOCH": "2025-12-10T05:03:42.001056", "MEAN_MOTION": 14.10312898, "ECCENTRICITY": 0.0045358, "INCLINATION": 98.7074, "RA_OF_ASC_NODE": 326.0947, "ARG_OF_PERICENTER": 263.4388, "MEAN_ANOMALY": 96.1618, "EPHEMERIS_TYPE": 0, "CLASSIFICATION_TYPE": "U", "NORAD_CAT_ID": 36729, "ELEMENT_SET_NO": 999, "REV_AT_EPOCH": 87216, "BSTAR": 0.00040064, "MEAN_MOTION_DOT": 6.75e-06, "MEAN_MOTION_DDOT": 0}, "tle": {"line1": "1 36729U 99025EBB 25344.21090279  .00000675  00000+0  40064-3 0  9994", "line2": "2 36729  98.7074 326.0947 0045358 263.4388  96.1618 14.10312898872166"}}, "geometry": {"type": "Point", "coordinates": [-136.28184366735863, 81.04634598114954]}}, {"type": "Feature", "properties": {"norad_id": 36734, "name": "FENGYUN 1C DEB", "group": "fengyun-1c-debris", "lat": 48.09462516049562, "lon": -137.62220844426622, "alt_km": 802.1673326989458, "timestamp": "2025-12-11T07:02:24.018838+00:00", "meta": {"OBJECT_NAME": "FENGYUN 1C DEB", "OBJECT_ID": "1999-025EBG", "EPOCH": "2025-12-09T02:12:52.327584", "MEAN_MOTION": 14.25812368, "ECCENTRICITY": 0.00360244, "INCLINATION": 99.0554, "RA_OF_ASC_NODE": 29.8687, "ARG_OF_PERICENTER": 229.3842, "MEAN_ANOMALY": 130.4202, "EPHEMERIS_TYPE": 0, "CLASSIFICATION_TYPE": "U", "NORAD_CAT_ID": 36734, "ELEMENT_SET_NO": 999, "REV_AT_EPOCH": 82682, "BSTAR": 0.0019663191, "MEAN_MOTION_DOT": 4.662e-05, "MEAN_MOTION_DDOT": 0}, "tle": {"line1": "1 36734U 99025EBG 25343.09227231  .00004662  00000+0  19663-2 0  9995", "line2": "2 36734  99.0554  29.8687 0036024 229.3842 130.4202 14.25812368826820"}}, "geometry": {"type": "Point", "coordinates": [-137.62220844426622, 48.09462516049562]}}, {"type": "Feature", "properties": {"norad_id": 36736, "name": "FENGYUN 1C DEB", "group": "fengyun-1c-debris", "lat": -52.320237484165474, "lon": -132.8302090146296, "alt_km": 812.9201493748806, "timestamp": "2025-12-11T07:02:24.018848+00:00", "meta": {"OBJECT_NAME": "FENGYUN 1C DEB", "OBJECT_ID": "1999-025EBJ", "EPOCH": "2025-12-09T11:50:18.464064", "MEAN_MOTION": 14.25427277, "ECCENTRICITY": 0.00613506, "INCLINATION": 98.8056, "RA_OF_ASC_NODE": 56.941, "ARG_OF_PERICENTER": 149.2788, "MEAN_ANOMALY": 211.2006, "EPHEMERIS_TYPE": 0, "CLASSIFICATION_TYPE": "U", "NORAD_CAT_ID": 36736, "ELEMENT_SET_NO": 999, "REV_AT_EPOCH": 88569, "BSTAR": 0.0026697798, "MEAN_MOTION_DOT": 6.386e-05, "MEAN_MOTION_DDOT": 0}, "tle": {"line1": "1 36736U 99025EBJ 25343.49326926  .00006386  00000+0  26698-2 0  9993", "line2": "2 36736  98.8056  56.9410 0061350 149.2788 211.2006 14.25427277885691"}}, "geometry": {"type": "Point", "coordinates": [-132.8302090146296, -52.320237484165474]}}, {"type": "Feature", "properties": {"norad_id": 36743, "name": "FENGYUN 1C DEB", "group": "fengyun-1c-debris", "lat": -62.27611711624825, "lon": -163.27856560002581, "alt_km": 825.593406572023, "timestamp": "2025-12-11T07:02:24.018858+00:00", "meta": {"OBJECT_NAME": "FENGYUN 1C DEB", "OBJECT_ID": "1999-025EBR", "EPOCH": "2025-12-06T23:24:01.212192", "MEAN_MOTION": 14.29041368, "ECCENTRICITY": 0.00476846, "INCLINATION": 98.6555, "RA_OF_ASC_NODE": 29.2835, "ARG_OF_PERICENTER": 30.1026, "MEAN_ANOMALY": 330.2881, "EPHEMERIS_TYPE": 0, "CLASSIFICATION_TYPE": "U", "NORAD_CAT_ID": 36743, "ELEMENT_SET_NO": 999, "REV_AT_EPOCH": 60655, "BSTAR": 0.0020129322, "MEAN_MOTION_DOT": 5.118e-05, "MEAN_MOTION_DDOT": 0}, "tle": {"line1": "1 36743U 99025EBR 25340.97501403  .00005118  00000+0  20129-2 0  9991", "line2": "2 36743  98.6555  29.2835 0047684  30.1026 330.2881 14.29041368606558"}}, "geometry": {"type": "Point", "coordinates": [-163.27856560002581, -62.27611711624825]}}, {"type": "Feature", "properties": {"norad_id": 36986, "name": "FENGYUN 1C DEB", "group": "fengyun-1c-debris", "lat": -78.06382900203018, "lon": 100.88349069821375, "alt_km": 797.5162345965664, "timestamp": "2025-12-11T07:02:24.018869+00:00", "meta": {"OBJECT_NAME": "FENGYUN 1C DEB", "OBJECT_ID": "1999-025EBS", "EPOCH": "2025-12-08T03:02:04.297632", "MEAN_MOTION": 14.1452558, "ECCENTRICITY": 0.00872891, "INCLINATION": 99.1431, "RA_OF_ASC_NODE": 48.0152, "ARG_OF_PERICENTER": 254.5991, "MEAN_ANOMALY": 104.5525, "EPHEMERIS_TYPE": 0, "CLASSIFICATION_TYPE": "U", "NORAD_CAT_ID": 36986, "ELEMENT_SET_NO": 999, "REV_AT_EPOCH": 81679, "BSTAR": 0.0028814321, "MEAN_MOTION_DOT": 5.691e-05, "MEAN_MOTION_DDOT": 0}, "tle": {"line1": "1 36986U 99025EBS 25342.12643863  .00005691  00000+0  28814-2 0  9991", "line2": "2 36986  99.1431  48.0152 0087289 254.5991 104.5525 14.14525580816798"}}, "geometry": {"type": "Point", "coordinates": [100.88349069821375, -78.06382900203018]}}, {"type": "Feature", "properties": {"norad_id": 36987, "name": "FENGYUN 1C DEB", "group": "fengyun-1c-debris", "lat": -3.4686224641405685, "lon": 45.284118096019846, "alt_km": 1249.711545931641, "timestamp": "2025-12-11T07:02:24.018879+00:00", "meta": {"OBJECT_NAME": "FENGYUN 1C DEB", "OBJECT_ID": "1999-025EBT", "EPOCH": "2025-12-09T22:02:43.938240", "MEAN_MOTION": 13.45868722, "ECCENTRICITY": 0.03198157, "INCLINATION": 100.8192, "RA_OF_ASC_NODE": 224.4652, "ARG_OF_PERICENTER": 53.5649, "MEAN_ANOMALY": 309.4517, "EPHEMERIS_TYPE": 0, "CLASSIFICATION_TYPE": "U", "NORAD_CAT_ID": 36987, "ELEMENT_SET_NO": 999, "REV_AT_EPOCH": 60839, "BSTAR": 0.0016490074, "MEAN_MOTION_DOT": 1.29e-05, "MEAN_MOTION_DDOT": 0}, "tle": {"line1": "1 36987U 99025EBT 25343.91856410  .00001290  00000+0  16490-2 0  9992", "line2": "2 36987 100.8192 224.4652 0319815  53.5649 309.4517 13.45868722608391"}}, "geometry": {"type": "Point", "coordinates": [45.284118096019846, -3.4686224641405685]}}]}